ONEWEB-0045             
1 45151U 20008W   25171.51695432 -.00000146  00000+0 -44760-3 0  9993
2 45151  87.8844  93.1229 0001965  81.5801 278.5550 13.11418022263788
ONEWEB-0047             
1 45152U 20008X   25170.52736032  .00000075  00000+0  17929-3 0  9992
2 45152  87.8821 108.5892 0001923  80.3909 279.7435 13.10369060261498
ONEWEB-0048             
1 45153U 20008Y   25171.28595636  .00000456  00000+0  12691-2 0  9993
2 45153  87.8825 108.4615 0001943  79.0299 281.1047 13.10370603261170
ONEWEB-0049             
1 45154U 20008Z   25171.51751436  .00000423  00000+0  11741-2 0  9991
2 45154  87.8829 108.4094 0001928  65.1590 294.9738 13.10372088261447
ONEWEB-0051             
1 45155U 20008AA  25171.51525578 -.00000209  00000+0 -62691-3 0  9993
2 45155  87.8844  93.1669 0002079  78.2827 281.8534 13.11418601264466
ONEWEB-0052             
1 45156U 20008AB  25171.51254060  .00000580  00000+0  16252-2 0  9990
2 45156  87.8821 108.3527 0001781  63.1461 296.9849 13.10371800261337
ONEWEB-0053             
1 45157U 20008AC  25170.57882312  .00000579  00000+0  16218-2 0  9993
2 45157  87.8828 108.5997 0001802  87.3266 272.8067 13.10375036260422
ONEWEB-0054             
1 45158U 20008AD  25170.53730531 -.00000359  00000+0 -10652-2 0  9999
2 45158  87.8822 108.5831 0002039  77.8912 282.2443 13.10370700261291
